NORAD_CAT_ID,OBJECT_NAME,OBJECT_TYPE,EPOCH,MEAN_MOTION,ECCENTRICITY,INCLINATION,RA_OF_ASC_NODE,ARG_OF_PERICENTER,MEAN_ANOMALY,BSTAR,MEAN_MOTION_DOT,MEAN_MOTION_DDOT,TLE_LINE0,TLE_LINE1,TLE_LINE2,SEMIMAJOR_AXIS,PERIOD,APOGEE,PERIGEE,DECAYED
51126.0,STARLINK-3386,PAYLOAD,2022-03-19 14:00:01,15.58105715,0.0001142,53.2175,340.4316,69.7879,238.7971,-0.010131,-0.00711103,0.0,0 STARLINK-3386,1 51126U 22005Y   22078.58334491 -.00711103  00000-0 -10131-1 0  9992,2 51126  53.2175 340.4316 0001142  69.7879 238.7971 15.58105715  3698,6771.276999999999,92.42,393.915,392.36800000000005,0.0
51126.0,STARLINK-3386,PAYLOAD,2022-03-19 22:00:01,15.57598771,0.0001264999999999,53.2177,338.8232,53.1497,325.9790000000001,-0.010406,-0.007161,0.0,0 STARLINK-3386,1 51126U 22005Y   22078.91668981 -.00716100  00000-0 -10406-1 0  9990,2 51126  53.2177 338.8232 0001265  53.1497 325.9790 15.57598771 10735,6772.746,92.45,395.468,393.754,0.0
51126.0,STARLINK-3386,PAYLOAD,2022-03-20 14:00:01,15.5657744,0.0001351999999999,53.2173,335.6059,58.0528,100.1351,-0.010772,-0.00713595,0.0,0 STARLINK-3386,1 51126U 22005Y   22079.58334491 -.00713595  00000-0 -10772-1 0  9991,2 51126  53.2173 335.6059 0001352  58.0528 100.1351 15.56577440  3680,6775.708000000001,92.511,398.489,396.657,0.0
51126.0,STARLINK-3386,PAYLOAD,2022-03-20 22:00:01,15.56065454,0.0001506,53.2175,334.0012,53.5431,173.3519,-0.010923,-0.00710215,0.0,0 STARLINK-3386,1 51126U 22005Y   22079.91668981 -.00710215  00000-0 -10923-1 0  9996,2 51126  53.2175 334.0012 0001506  53.5431 173.3519 15.56065454  3717,6777.194,92.541,400.08,398.039,0.0
51126.0,STARLINK-3386,PAYLOAD,2022-03-21 06:00:00,15.55559111,0.0001153,53.2172,332.3967,79.9768,214.881,-0.011224,-0.00715595,0.0,0 STARLINK-3386,1 51126U 22005Y   22080.25001157 -.00715595  00000-0 -11224-1 0  9992,2 51126  53.2172 332.3967 0001153  79.9768 214.8810 15.55559111 10942,6778.665,92.571,401.311,399.74800000000016,0.0
51126.0,STARLINK-3386,PAYLOAD,2022-03-21 14:00:01,15.55045834,0.0001132,53.2173,330.7913,63.1869,299.0901,-0.01136,-0.00711018,0.0,0 STARLINK-3386,1 51126U 22005Y   22080.58334491 -.00711018  00000-0 -11360-1 0  9995,2 51126  53.2173 330.7913 0001132  63.1869 299.0901 15.55045834  3692,6780.156,92.602,402.789,401.254,0.0
51126.0,STARLINK-3386,PAYLOAD,2022-03-21 22:00:00,15.54538322,0.0001386999999999,53.2173,329.1907,47.3346,21.7442,-0.011638,-0.00714608,0.0,0 STARLINK-3386,1 51126U 22005Y   22080.91667824 -.00714608  00000-0 -11638-1 0  9997,2 51126  53.2173 329.1907 0001387  47.3346  21.7442 15.54538322  3691,6781.632,92.632,404.43800000000016,402.556,0.0
51126.0,STARLINK-3386,PAYLOAD,2022-03-22 14:00:01,15.53517958,0.0001361999999999,53.2172,325.9877,63.0057,137.8438,-0.01207,-0.00713928,0.0,0 STARLINK-3386,1 51126U 22005Y   22081.58334491 -.00713928  00000-0 -12070-1 0  9997,2 51126  53.2172 325.9877 0001362  63.0057 137.8438 15.53517958 11152,6784.601,92.693,407.39,405.542,0.0
51126.0,STARLINK-3386,PAYLOAD,2022-03-22 22:00:01,15.53006163,0.0001448,53.2174,324.3907,55.1421,210.7373,-0.012239,-0.0071081999999999,0.0,0 STARLINK-3386,1 51126U 22005Y   22081.91668981 -.00710820  00000-0 -12239-1 0  9993,2 51126  53.2174 324.3907 0001448  55.1421 210.7373 15.53006163  3705,6786.092,92.723,408.939,406.974,0.0
51126.0,STARLINK-3386,PAYLOAD,2022-03-23 14:00:01,15.51986295,0.0001182,53.2175,321.1953,58.5649,335.3435,-0.012706,-0.00711046,0.0,0 STARLINK-3386,1 51126U 22005Y   22082.58334491 -.00711046  00000-0 -12706-1 0  9993,2 51126  53.2175 321.1953 0001182  58.5649 335.3435 15.51986295 11305,6789.064,92.784,411.732,410.127,0.0
51126.0,STARLINK-3386,PAYLOAD,2022-03-23 22:00:00,15.51478392,0.0001463,53.2175,319.6022,46.8998,50.1336,-0.012996,-0.00723002,0.0,0 STARLINK-3386,1 51126U 22005Y   22082.91667824 -.00723002  00000-0 -12996-1 0  9995,2 51126  53.2175 319.6022 0001463  46.8998  50.1336 15.51478392  3715,6790.545999999999,92.815,413.404,411.417,0.0
51126.0,STARLINK-3386,PAYLOAD,2022-03-24 14:00:01,15.50457946,0.0001434,53.2173,316.4137,59.4643,161.9864,-0.013462,-0.00722084,0.0,0 STARLINK-3386,1 51126U 22005Y   22083.58334491 -.00722084  00000-0 -13462-1 0  9998,2 51126  53.2173 316.4137 0001434  59.4643 161.9864 15.50457946  3684,6793.525,92.876,416.364,414.416,0.0
51126.0,STARLINK-3386,PAYLOAD,2022-03-24 22:00:00,15.49947454,0.0001416999999999,53.2174,314.8242,56.6678,226.0709,-0.013695,-0.00721383,0.0,0 STARLINK-3386,1 51126U 22005Y   22083.91667824 -.00721383  00000-0 -13695-1 0  9993,2 51126  53.2174 314.8242 0001417  56.6678 226.0709 15.49947454 11510,6795.017,92.906,417.844,415.919,0.0
51126.0,STARLINK-3386,PAYLOAD,2022-03-25 12:00:00,15.48960104,0.0001305,53.2173,312.0382,65.10300000000001,233.4278,-0.00036273,-0.00020321,0.0,0 STARLINK-3386,1 51126U 22005Y   22084.50001157 -.00020321  00000-0 -36273-3 0  9993,2 51126  53.2173 312.0382 0001305  65.1030 233.4278 15.48960104 11606,6797.904,92.966,420.656,418.882,0.0
51126.0,STARLINK-3386,PAYLOAD,2022-03-25 14:00:01,15.48947037,0.0001242,53.2173,311.6404,64.0373,339.4464,2.4153e-05,8.8e-06,0.0,0 STARLINK-3386,1 51126U 22005Y   22084.58334491  .00000880  00000-0  24153-4 0  9992,2 51126  53.2173 311.6404 0001242  64.0373 339.4464 15.48947037  3698,6797.941999999999,92.966,420.651,418.963,0.0
51126.0,STARLINK-3386,PAYLOAD,2022-03-25 22:00:01,15.48801629,0.0001443,53.2171,310.0482,59.518,43.9271,0.003127,0.00174253,0.0,0 STARLINK-3386,1 51126U 22005Y   22084.91668981  .00174253  00000-0  31270-2 0  9995,2 51126  53.2171 310.0482 0001443  59.5180  43.9271 15.48801629  3704,6798.368,92.975,421.214,419.252,0.0
51126.0,STARLINK-3386,PAYLOAD,2022-03-26 06:00:00,15.49057294,0.0001386999999999,53.2158,308.4496,57.7396,105.512,-0.00018042,-0.00010379,0.0,0 STARLINK-3386,1 51126U 22005Y   22085.25001157 -.00010379  00000-0 -18042-3 0  9992,2 51126  53.2158 308.4496 0001387  57.7396 105.5120 15.49057294 11722,6797.62,92.96,420.427,418.542,0.0
51126.0,STARLINK-3386,PAYLOAD,2022-03-26 14:00:01,15.49079821,0.0001307,53.216,306.8571,64.6321,158.5525,0.00056982,0.00031113,0.0,0 STARLINK-3386,1 51126U 22005Y   22085.58334491  .00031113  00000-0  56982-3 0  9990,2 51126  53.2160 306.8571 0001307  64.6321 158.5525 15.49079821  3669,6797.554,92.958,420.307,418.53,0.0
51126.0,STARLINK-3386,PAYLOAD,2022-03-26 20:00:01,15.49136173,0.0001539,53.216,305.6651,59.2497,118.9403,-0.0010532,-0.00058234,0.0,0 STARLINK-3386,1 51126U 22005Y   22085.83334491 -.00058234  00000-0 -10532-2 0  9993,2 51126  53.2160 305.6651 0001539  59.2497 118.9403 15.49136173 11811,6797.389,92.955,420.3,418.208,0.0
51126.0,STARLINK-3386,PAYLOAD,2022-03-26 22:00:00,15.49130671,0.000157,53.216,305.2678,56.9114,226.2786,-0.0011709,-0.00064627,0.0,0 STARLINK-3386,1 51126U 22005Y   22085.91667824 -.00064627  00000-0 -11709-2 0  9991,2 51126  53.2160 305.2678 0001570  56.9114 226.2786 15.49130671  3692,6797.405,92.955,420.337,418.203,0.0
51126.0,STARLINK-3386,PAYLOAD,2022-03-27 06:00:00,15.49138156,0.0001561999999999,53.2157,303.6758,56.2885,286.8738,-0.0060188,-0.00319929,0.0,0 STARLINK-3386,1 51126U 22005Y   22086.25001157 -.00319929  00000-0 -60188-2 0  9993,2 51126  53.2157 303.6758 0001562  56.2885 286.8738 15.49138156 11872,6797.3830000000025,92.955,420.31,418.186,0.0
51126.0,STARLINK-3386,PAYLOAD,2022-03-27 14:00:01,15.48894359,0.0001643,53.2157,302.0838,65.6369,337.4253,-0.00038085,-0.00021264,0.0,0 STARLINK-3386,1 51126U 22005Y   22086.58334491 -.00021264  00000-0 -38085-3 0  9993,2 51126  53.2157 302.0838 0001643  65.6369 337.4253 15.48894359 11929,6798.096,92.97,421.078,418.844,0.0
51126.0,STARLINK-3386,PAYLOAD,2022-03-27 22:00:01,15.48938826,0.0001847,53.2154,300.4949,58.6117,44.3774,-0.00037572,-0.00021017,0.0,0 STARLINK-3386,1 51126U 22005Y   22086.91668981 -.00021017  00000-0 -37572-3 0  9990,2 51126  53.2154 300.4949 0001847  58.6117  44.3774 15.48938826 11975,6797.965999999999,92.967,421.087,418.576,0.0
51126.0,STARLINK-3386,PAYLOAD,2022-03-28 06:00:00,15.48959645,0.0001625,53.2148,298.903,56.319,106.3933,-0.00010983,-6.475e-05,0.0,0 STARLINK-3386,1 51126U 22005Y   22087.25001157 -.00006475  00000-0 -10983-3 0  9992,2 51126  53.2148 298.9030 0001625  56.3190 106.3933 15.48959645 12036,6797.905,92.966,420.875,418.666,0.0
51126.0,STARLINK-3386,PAYLOAD,2022-03-28 14:00:01,15.4900272,0.0001649,53.2151,297.3112,62.6669,159.9156,-0.0026669,-0.00144499,0.0,0 STARLINK-3386,1 51126U 22005Y   22087.58335648 -.00144499  00000-0 -26669-2 0  9999,2 51126  53.2151 297.3112 0001649  62.6669 159.9156 15.49002720  3698,6797.779,92.963,420.765,418.523,0.0
51126.0,STARLINK-3386,PAYLOAD,2022-03-28 22:00:00,15.48911237,0.0001996,53.2151,295.7223,57.1089,225.2598,-0.0010405,-0.00057097,0.0,0 STARLINK-3386,1 51126U 22005Y   22087.91667824 -.00057097  00000-0 -10405-2 0  9998,2 51126  53.2151 295.7223 0001996  57.1089 225.2598 15.48911237  3679,6798.047,92.969,421.269,418.555,0.0
51126.0,STARLINK-3386,PAYLOAD,2022-03-29 04:00:00,15.48900044,0.0001856,53.2147,294.5287,52.8488,184.3049,-0.0019088,-0.00103715,0.0,0 STARLINK-3386,1 51126U 22005Y   22088.16667824 -.00103715  00000-0 -19088-2 0  9991,2 51126  53.2147 294.5287 0001856  52.8488 184.3049 15.48900044 12176,6798.08,92.969,421.206,418.6830000000001,0.0
51126.0,STARLINK-3386,PAYLOAD,2022-03-29 14:00:01,15.48675927,0.0001326,53.2171,292.5392,47.8985,353.6847,0.00052901,0.00028433,0.0,0 STARLINK-3386,1 51126U 22005Y   22088.58334491  .00028433  00000-0  52901-3 0  9991,2 51126  53.2171 292.5392 0001326  47.8985 353.6847 15.48675927 12239,6798.735,92.983,421.502,419.699,0.0
51126.0,STARLINK-3386,PAYLOAD,2022-03-29 22:00:00,15.48650552,0.0001546,53.2174,290.951,42.7637,58.3016,0.0026441,0.00145961,0.0,0 STARLINK-3386,1 51126U 22005Y   22088.91667824  .00145961  00000-0  26441-2 0  9992,2 51126  53.2174 290.9510 0001546  42.7637  58.3016 15.48650552  3658,6798.81,92.984,421.726,419.624,0.0
